OBJECT_NAME,OBJECT_ID,EPOCH,MEAN_MOTION,ECCENTRICITY,INCLINATION,RA_OF_ASC_NODE,ARG_OF_PERICENTER,MEAN_ANOMALY,EPHEMERIS_TYPE,CLASSIFICATION_TYPE,NORAD_CAT_ID,ELEMENT_SET_NO,REV_AT_EPOCH,BSTAR,MEAN_MOTION_DOT,MEAN_MOTION_DDOT
STARLINK-3704,2022-025D,2026-06-17T21:22:09.568992,15.31702887,.00010899,53.1617,291.2964,85.0741,275.0385,0,U,51959,999,23617,.44772627E-4,.1025E-4,0
STARLINK-3691,2022-025E,2026-06-17T14:45:04.203936,15.31702616,.00010523,53.1600,291.8225,81.4907,278.6213,0,U,51960,999,23614,.27602116E-4,.492E-5,0
STARLINK-3697,2022-025G,2026-06-18T06:20:21.224256,15.31704124,.000128,53.1623,276.4107,87.3345,272.7803,0,U,51962,999,23642,.25576876E-4,.429E-5,0
STARLINK-3675,2022-025H,2026-06-17T11:49:54.976224,15.31702802,.00011197,53.1601,269.2663,86.5455,273.5675,0,U,51963,999,23646,.7674264E-5,-.127E-5,0
STARLINK-3690,2022-025J,2026-06-17T14:20:36.597984,15.31702509,.00011,53.1615,279.5030,82.7209,277.3917,0,U,51964,999,23632,.33728E-4,.682E-5,0
STARLINK-3696,2022-025K,2026-06-17T15:58:59.868480,15.31701816,.00009372,53.1601,292.1269,105.0768,255.0338,0,U,51965,999,23614,.42147622E-4,.943E-5,0
STARLINK-3699,2022-025L,2026-06-17T15:45:32.306688,15.31700259,.0001251,53.1602,291.9282,63.7562,296.3568,0,U,51966,999,23614,.6056993E-5,-.177E-5,0
STARLINK-3681,2022-025N,2026-06-18T07:20:44.448000,15.31693596,.00010459,53.1608,276.2067,83.4816,276.6305,0,U,51968,999,23643,-.11902372E-3,-.4056E-4,0
STARLINK-3680,2022-025P,2026-06-18T07:40:53.508864,15.31702661,.00014134,53.1613,276.1802,93.6368,266.4795,0,U,51969,999,23642,.8912632E-5,-.89E-6,0
STARLINK-3677,2022-025Q,2026-06-17T14:55:09.772032,15.30195537,.0001074,53.1620,292.5414,82.2082,277.9040,0,U,51970,999,23613,.5811099E-4,.1362E-4,0
STARLINK-3669,2022-025R,2026-06-17T14:47:29.970240,15.31698937,.00009107,53.1602,279.6236,85.8369,274.2736,0,U,51971,999,23632,.48042614E-4,.1126E-4,0
STARLINK-3671,2022-025S,2026-06-18T08:00:01.999872,15.31700822,.00009834,53.1593,289.2063,89.2114,297.7148,0,U,51972,999,586,.9574894E-3,.29465E-3,0
STARLINK-3679,2022-025T,2026-06-17T12:24:11.274624,15.31699080,.00008991,53.1605,292.5546,83.9781,276.1323,0,U,51973,999,23612,.14109484E-4,.73E-6,0
STARLINK-3672,2022-025U,2026-06-17T20:20:44.661696,15.31703819,.00009889,53.1593,291.2419,110.3559,249.7549,0,U,51974,999,23616,-.585466E-6,-.383E-5,0
STARLINK-3674,2022-025V,2026-06-18T07:27:23.906304,15.31643533,.00011855,53.1604,275.7149,97.6179,262.4958,0,U,51975,999,23644,.51202241E-3,.15529E-3,0
STARLINK-3660,2022-025X,2026-06-17T15:22:30.712800,15.08830737,.00008412,53.1611,290.3309,80.4895,279.6191,0,U,51977,999,23642,.41676673E-4,.375E-5,0
STARLINK-3649,2022-025AA,2026-06-17T14:57:17.197344,15.08830016,.00011427,53.1616,310.4001,80.5094,279.6027,0,U,51980,999,23614,.20735155E-4,.42E-6,0
STARLINK-3635,2022-025AB,2026-06-17T15:18:29.006208,15.08832957,.00010944,53.1599,310.3348,84.7675,275.3442,0,U,51981,999,23614,.52444728E-4,.547E-5,0
STARLINK-3655,2022-025AD,2026-06-17T15:13:11.265888,15.08830427,.00010794,53.1603,310.3592,90.0901,270.0214,0,U,51983,999,23614,.15526908E-4,-.41E-6,0
STARLINK-3664,2022-025AE,2026-06-17T16:07:35.206464,15.08822975,.00012952,53.1609,310.2687,85.7203,274.3936,0,U,51984,999,23615,-.43740227E-4,-.984E-5,0
STARLINK-3651,2022-025AF,2026-06-17T15:03:57.924864,15.08836726,.00012359,53.1606,310.3911,94.9345,265.1788,0,U,51985,999,23614,.92891661E-4,.1191E-4,0
STARLINK-3645,2022-025AG,2026-06-17T15:23:45.387456,15.08836639,.00012052,53.1609,310.1646,84.9123,275.2006,0,U,51986,999,23615,.11195529E-3,.1494E-4,0
STARLINK-3644,2022-025AH,2026-06-18T08:00:01.999872,15.18808484,.00012337,53.1597,306.9239,81.3932,63.4799,0,U,51987,999,580,.33824001E-2,.71645E-3,0
STARLINK-3640,2022-025AJ,2026-06-17T15:39:40.945536,15.08832153,.00012029,53.1596,310.2696,88.8421,271.2708,0,U,51988,999,23615,-.12849896E-4,-.492E-5,0
STARLINK-3642,2022-025AK,2026-06-18T08:00:01.999872,15.17361770,.00015553,53.1591,307.0555,67.3495,31.5227,0,U,51989,999,576,.35042687E-2,.71198E-3,0
STARLINK-3657,2022-025AL,2026-06-17T12:05:03.691680,15.08828021,.00010466,53.1609,290.9406,90.1270,269.9841,0,U,51990,999,23640,.98830753E-4,.1285E-4,0
STARLINK-3652,2022-025AM,2026-06-18T08:00:01.999872,15.18064654,.00014459,53.1588,306.9385,56.9448,140.9305,0,U,51991,999,581,.32476812E-2,.67274E-3,0
STARLINK-3643,2022-025AN,2026-06-18T06:53:47.984352,15.08828236,.00014165,53.1609,287.4147,93.1246,266.9907,0,U,51992,999,23609,.10700827E-3,.1415E-4,0
STARLINK-3648,2022-025AP,2026-06-17T15:34:20.839584,15.08851845,.00008544,53.1603,310.2881,87.3577,272.7513,0,U,51993,999,23615,.20218046E-3,.2932E-4,0
STARLINK-3647,2022-025AQ,2026-06-17T13:19:14.850336,15.08834587,.0001313,53.1602,290.7044,103.3647,256.7491,0,U,51994,999,23599,-.36891E-5,-.347E-5,0
