STARLINK-3704           
1 51959U 22025D   26168.89038853  .00001025  00000+0  44773-4 0  9993
2 51959  53.1617 291.2964 0001089  85.0741 275.0385 15.31702887236171
STARLINK-3691           
1 51960U 22025E   26168.61463199  .00000492  00000+0  27602-4 0  9999
2 51960  53.1600 291.8225 0001052  81.4907 278.6213 15.31702616236141
STARLINK-3697           
1 51962U 22025G   26169.26413454  .00000429  00000+0  25577-4 0  9991
2 51962  53.1623 276.4107 0001280  87.3345 272.7803 15.31704124236427
STARLINK-3675           
1 51963U 22025H   26168.49299741 -.00000127  00000+0  76743-5 0  9995
2 51963  53.1601 269.2663 0001119  86.5455 273.5675 15.31702802236466
STARLINK-3690           
1 51964U 22025J   26168.59764581  .00000682  00000+0  33728-4 0  9996
2 51964  53.1615 279.5030 0001100  82.7209 277.3917 15.31702509236329
STARLINK-3696           
1 51965U 22025K   26168.66597070  .00000943  00000+0  42148-4 0  9998
2 51965  53.1601 292.1269 0000937 105.0768 255.0338 15.31701816236146
STARLINK-3699           
1 51966U 22025L   26168.65662392 -.00000177  00000+0  60570-5 0  9998
2 51966  53.1602 291.9282 0001251  63.7562 296.3568 15.31700259236145
STARLINK-3681           
1 51968U 22025N   26169.30607000 -.00004056  00000+0 -11902-3 0  9992
2 51968  53.1608 276.2067 0001045  83.4816 276.6305 15.31693596236439
STARLINK-3680           
1 51969U 22025P   26169.32006376 -.00000089  00000+0  89126-5 0  9990
2 51969  53.1613 276.1802 0001413  93.6368 266.4795 15.31702661236429
STARLINK-3677           
1 51970U 22025Q   26168.62164088  .00001362  00000+0  58111-4 0  9992
2 51970  53.1620 292.5414 0001074  82.2082 277.9040 15.30195537236135
STARLINK-3669           
1 51971U 22025R   26168.61631910  .00001126  00000+0  48043-4 0  9996
2 51971  53.1602 279.6236 0000910  85.8369 274.2736 15.31698937236325
STARLINK-3671           
1 51972U 22025S   26169.33335648  .00029465  00000+0  95749-3 0  9996
2 51972  53.1593 289.2063 0000983  89.2114 297.7148 15.31700822  5863
STARLINK-3679           
1 51973U 22025T   26168.51679716  .00000073  00000+0  14109-4 0  9999
2 51973  53.1605 292.5546 0000899  83.9781 276.1323 15.31699080236122
STARLINK-3672           
1 51974U 22025U   26168.84773914 -.00000383  00000+0 -58547-6 0  9993
2 51974  53.1593 291.2419 0000988 110.3559 249.7549 15.31703819236167
STARLINK-3674           
1 51975U 22025V   26169.31069336  .00015529  00000+0  51202-3 0  9997
2 51975  53.1604 275.7149 0001185  97.6179 262.4958 15.31643533236446
STARLINK-3660           
1 51977U 22025X   26168.64063325  .00000375  00000+0  41677-4 0  9995
2 51977  53.1611 290.3309 0000841  80.4895 279.6191 15.08830737236425
STARLINK-3649           
1 51980U 22025AA  26168.62311571  .00000042  00000+0  20735-4 0  9999
2 51980  53.1616 310.4001 0001142  80.5094 279.6027 15.08830016236141
STARLINK-3635           
1 51981U 22025AB  26168.63783572  .00000547  00000+0  52445-4 0  9998
2 51981  53.1599 310.3348 0001094  84.7675 275.3442 15.08832957236142
STARLINK-3655           
1 51983U 22025AD  26168.63415817 -.00000041  00000+0  15527-4 0  9994
2 51983  53.1603 310.3592 0001079  90.0901 270.0214 15.08830427236145
STARLINK-3664           
1 51984U 22025AE  26168.67193526 -.00000984  00000+0 -43740-4 0  9994
2 51984  53.1609 310.2687 0001295  85.7203 274.3936 15.08822975236150
STARLINK-3651           
1 51985U 22025AF  26168.62775376  .00001191  00000+0  92892-4 0  9990
2 51985  53.1606 310.3911 0001235  94.9345 265.1788 15.08836726236143
STARLINK-3645           
1 51986U 22025AG  26168.64149754  .00001494  00000+0  11196-3 0  9991
2 51986  53.1609 310.1646 0001205  84.9123 275.2006 15.08836639236159
STARLINK-3644           
1 51987U 22025AH  26169.33335648  .00071645  00000+0  33824-2 0  9994
2 51987  53.1597 306.9239 0001233  81.3932  63.4799 15.18808484  5807
STARLINK-3640           
1 51988U 22025AJ  26168.65255724 -.00000492  00000+0 -12850-4 0  9997
2 51988  53.1596 310.2696 0001202  88.8421 271.2708 15.08832153236155
STARLINK-3642           
1 51989U 22025AK  26169.33335648  .00071198  00000+0  35043-2 0  9994
2 51989  53.1591 307.0555 0001555  67.3495  31.5227 15.17361770  5769
STARLINK-3657           
1 51990U 22025AL  26168.50351495  .00001285  00000+0  98831-4 0  9998
2 51990  53.1609 290.9406 0001046  90.1270 269.9841 15.08828021236409
STARLINK-3652           
1 51991U 22025AM  26169.33335648  .00067274  00000+0  32477-2 0  9995
2 51991  53.1588 306.9385 0001445  56.9448 140.9305 15.18064654  5817
STARLINK-3643           
1 51992U 22025AN  26169.28736093  .00001415  00000+0  10701-3 0  9991
2 51992  53.1609 287.4147 0001416  93.1246 266.9907 15.08828236236094
STARLINK-3648           
1 51993U 22025AP  26168.64885231  .00002932  00000+0  20218-3 0  9999
2 51993  53.1603 310.2881 0000854  87.3577 272.7513 15.08851845236153
STARLINK-3647           
1 51994U 22025AQ  26168.55503299 -.00000347  00000+0 -36891-5 0  9997
2 51994  53.1602 290.7044 0001313 103.3647 256.7491 15.08834587235996
